#aV2012  1 31  0  0   .00000000      96 DD+AD WGS84 FIT  NGA
## 1673 172800.00000000   900.00000000 55957  .0000000000000
+   31     1  2  3  4  5  6  7  8  9 10 11 12 13 14 15 16 17
+         18 19 20 21 22 23 25 26 27 28 29 30 31 32  0  0  0
+          0  0  0  0  0  0  0  0  0  0  0  0  0  0  0  0  0
+          0  0  0  0  0  0  0  0  0  0  0  0  0  0  0  0  0
+          0  0  0  0  0  0  0  0  0  0  0  0  0  0  0  0  0
++         0  0  0  0  0  0  0  0  0  0  0  0  0  0  0  0  0
++         0  0  0  0  0  0  0  0  0  0  0  0  0  0  0  0  0
++         0  0  0  0  0  0  0  0  0  0  0  0  0  0  0  0  0
++         0  0  0  0  0  0  0  0  0  0  0  0  0  0  0  0  0
++         0  0  0  0  0  0  0  0  0  0  0  0  0  0  0  0  0
%c cc cc ccc ccc cccc cccc cccc cccc ccccc ccccc ccccc ccccc
%c cc cc ccc ccc cccc cccc cccc cccc ccccc ccccc ccccc ccccc
%f  0.0000000  0.000000000  0.00000000000  0.000000000000000
%f  0.0000000  0.000000000  0.00000000000  0.000000000000000
%i    0    0    0    0      0      0      0      0         0
%i    0    0    0    0      0      0      0      0         0
/*      NGA, ST. LOUIS,MO.                                  
/*   EPHEMERIS COMPUTED FROM  3 DAYS OF DATA                
/* CCCCCCCCCCCCCCCCCCCCCCCCCCCCCCCCCCCCCCCCCCCCCCCCCCCCCCCCC
/* CCCCCCCCCCCCCCCCCCCCCCCCCCCCCCCCCCCCCCCCCCCCCCCCCCCCCCCCC
*  2012  1 31 20 30   .00000000                                                 
P  1 -13463.286109  18134.409573  13948.222754    198.301159                    
V  1   1222.191279 -17840.515202  24359.850829       .111809                    
P  2  14403.282657   7150.696332 -21099.332577    377.076778                    
V  2  -5199.176928  26532.207495   4915.748546       .015887                    
P  3 -23778.627204  -9198.001392   7487.392972      3.568222                    
V  3  -6496.358381  -8418.915628 -28912.397330       .050938                    
P  4   9280.698759  18035.329200 -17222.519821     80.182397                    
V  4  -6444.024638  20740.015106  18832.827721       .114679                    
P  5  24561.823072   -606.416879 -10271.054733   -277.319412                    
V  5 -11443.569664   6672.537630 -27704.663303      -.045505                    
P  6 -22763.280736 -13023.758235   5182.743682     27.996292                    
V  6  -3053.620171  -6455.671400 -30139.968006       .021342                    
P  7  -6376.175337  25612.168528  -1294.820281     53.828562                    
V  7  -2146.822507  -2177.714491 -32184.873005       .026963                    
P  8     91.664370  23982.203507  10815.904633       .531159                    
V  8  -5729.703611  12680.197408 -28774.537244       .000861                    
P  9  13890.973603 -15003.697001  16419.421392    135.519113                    
V  9  -2509.637806  21745.104269  21264.746287       .025199                    
P 10  10810.774553  12525.406817 -21090.522619    -27.544185                    
V 10 -24815.978059   8409.258399  -7422.982355      -.012636                    
P 11 -14110.749249  12297.303173  18366.870597   -228.128677                    
V 11  -4151.381009 -24274.094751  13133.032100      -.035766                    
P 12  23156.781447 -11388.457145  -5850.544374     49.825891                    
V 12   7821.797235     -1.997480  31095.645060       .021960                    
P 13  -1997.192067  17253.843500 -20209.551447    227.579992                    
V 13 -18046.435579 -17757.375787 -13549.253364      -.021070                    
P 14 -15013.674193 -21087.692388   6447.116780    192.182072                    
V 14   6983.897697   4196.294473  30693.867395       .014527                    
P 15  17805.626178  -3330.150900  19490.189120    -93.697839                    
V 15  18079.045682  16928.461919 -13417.189626       .005919                    
P 16 -24362.477708   -487.087327 -10913.886028   -221.375171                    
V 16  12708.520531  -5528.919562 -27780.906332      -.016958                    
P 17  13232.885172  21310.651021   9252.467471    151.491471                    
V 17  -9892.505564  -6188.494090  28673.369655      -.022036                    
P 18   6578.977189 -17263.891763  19300.634564    179.426540                    
V 18  23383.168145  -5747.291985 -13714.810631       .018128                    
P 19 -19085.471685  -1189.786664  18553.924618   -231.258346                    
V 19 -15288.747188 -17893.767754 -16472.922206      -.038678                    
P 20 -20981.370631  14318.464773  -7798.210158     61.064268                    
V 20 -10369.905595    212.425059  28963.344036       .007165                    
P 21   2675.982534 -25915.949017   3543.263576   -201.353771                    
V 21   4908.758913  -3119.650190 -31034.480033      -.025216                    
P 22  -9441.802747 -13500.447282  21021.489709    142.933676                    
V 22  24954.966355  -8672.003031   5571.376730      -.002131                    
P 23 -11565.452751   9967.720288 -21721.313016    237.007667                    
V 23 -20481.701905 -18538.755140   2041.203081      -.033588                    
P 25  14297.059318 -16248.044030 -15391.167158     31.390306                    
V 25  19032.719616  -4661.555434  22677.317123       .002227                    
P 26  21159.790460  10991.021532  11490.502978   -320.341853                    
V 26   9475.257914  12209.434272 -27297.177152      -.148418                    
P 27  15368.422749  -6420.898453  21214.515175    352.041301                    
V 27  -3218.083504  25357.575763  10757.051389       .039278                    
P 28   5731.011751  14047.041264  22362.501680    108.198682                    
V 28 -25962.539202   7447.206382   1796.859583       .037627                    
P 29   3188.364106 -16609.811626 -20421.758906    280.411394                    
V 29  19474.061278  17349.223911 -10995.409550       .035345                    
P 30 -18108.392838  -6248.580193 -18754.808254    -28.954681                    
V 30  20443.360552 -10833.486177 -16432.404462      -.139880                    
P 31  -8884.690468 -16779.319719 -18266.074226    202.537496                    
V 31   6369.215941 -22821.977173  17897.655977       .046641                    
P 32 -25412.235962   6722.326061   -753.557757   -400.889042                    
V 32  -2031.656895  -3108.630421  31852.510698      -.055296                    
EOF
